{"type": "FeatureCollection", "features": [ {"type": "Feature", "properties": {"norad_id": 35037, "name": "COSMOS 2251 DEB", "group": "cosmos-2251-debris", "lat": -51.880007818833654, "lon": -7.735311241900974, "alt_km": 274.76694177914305, "timestamp": "2025-12-05T19:30:25.962926+00:00", "meta": {"OBJECT_NAME": "COSMOS 2251 DEB", "OBJECT_ID": "1993-036AHA", "EPOCH": "2025-11-07T11:23:37.197312", "MEAN_MOTION": 15.53719687, "ECCENTRICITY": 0.0010282, "INCLINATION": 73.9601, "RA_OF_ASC_NODE": 214.7185, "ARG_OF_PERICENTER": 129.4999, "MEAN_ANOMALY": 230.7127, "EPHEMERIS_TYPE": 0, "CLASSIFICATION_TYPE": "U", "NORAD_CAT_ID": 35037, "ELEMENT_SET_NO": 999, "REV_AT_EPOCH": 66656, "BSTAR": 0.0068953187, "MEAN_MOTION_DOT": 0.00469331, "MEAN_MOTION_DDOT": 0}, "tle": {"line1": "1 35037U 93036AHA 25311.47473608  .00469331  00000+0  68953-2 0  9998", "line2": "2 35037  73.9601 214.7185 0010282 129.4999 230.7127 15.53719687666563"}}, "geometry": {"type": "Point", "coordinates": [-7.735311241900974, -51.880007818833654]}}, {"type": "Feature", "properties": {"norad_id": 35038, "name": "COSMOS 2251 DEB", "group": "cosmos-2251-debris", "lat": 54.6795553559526, "lon": -148.6795614982757, "alt_km": 789.0042928602343, "timestamp": "2025-12-05T19:30:25.962936+00:00", "meta": {"OBJECT_NAME": "COSMOS 2251 DEB", "OBJECT_ID": "1993-036AHB", "EPOCH": "2025-12-02T22:25:29.053056", "MEAN_MOTION": 14.25054791, "ECCENTRICITY": 0.01136239, "INCLINATION": 74.1068, "RA_OF_ASC_NODE": 60.197, "ARG_OF_PERICENTER": 46.834, "MEAN_ANOMALY": 72.6585, "EPHEMERIS_TYPE": 0, "CLASSIFICATION_TYPE": "U", "NORAD_CAT_ID": 35038, "ELEMENT_SET_NO": 999, "REV_AT_EPOCH": 85429, "BSTAR": 0.001245273, "MEAN_MOTION_DOT": 3.098e-05, "MEAN_MOTION_DDOT": 0}, "tle": {"line1": "1 35038U 93036AHB 25336.93436404  .00003098  00000+0  12453-2 0  9998", "line2": "2 35038  74.1068  60.1970 0113623  46.8340  72.6585 14.25054791854290"}}, "geometry": {"type": "Point", "coordinates": [-148.6795614982757, 54.6795553559526]}}, {"type": "Feature", "properties": {"norad_id": 35043, "name": "COSMOS 2251 DEB", "group": "cosmos-2251-debris", "lat": 60.19601705114816, "lon": -150.9371208083312, "alt_km": 696.4213774588934, "timestamp": "2025-12-05T19:30:25.962946+00:00", "meta": {"OBJECT_NAME": "COSMOS 2251 DEB", "OBJECT_ID": "1993-036AHG", "EPOCH": "2025-12-04T12:04:43.932000", "MEAN_MOTION": 14.76234637, "ECCENTRICITY": 0.0098548, "INCLINATION": 73.9539, "RA_OF_ASC_NODE": 61.8026, "ARG_OF_PERICENTER": 272.4177, "MEAN_ANOMALY": 86.5717, "EPHEMERIS_TYPE": 0, "CLASSIFICATION_TYPE": "U", "NORAD_CAT_ID": 35043, "ELEMENT_SET_NO": 999, "REV_AT_EPOCH": 67297, "BSTAR": 0.0098371, "MEAN_MOTION_DOT": 0.00074481, "MEAN_MOTION_DDOT": 0}, "tle": {"line1": "1 35043U 93036AHG 25338.50328625  .00074481  00000+0  98371-2 0  9991", "line2": "2 35043  73.9539  61.8026 0098548 272.4177  86.5717 14.76234637672978"}}, "geometry": {"type": "Point", "coordinates": [-150.9371208083312, 60.19601705114816]}}, {"type": "Feature", "properties": {"norad_id": 35045, "name": "COSMOS 2251 DEB", "group": "cosmos-2251-debris", "lat": 42.49656559056266, "lon": 80.46816030458764, "alt_km": 902.2205907626549, "timestamp": "2025-12-05T19:30:25.962956+00:00", "meta": {"OBJECT_NAME": "COSMOS 2251 DEB", "OBJECT_ID": "1993-036AHJ", "EPOCH": "2025-12-04T12:26:09.068064", "MEAN_MOTION": 14.00359627, "ECCENTRICITY": 0.0183193, "INCLINATION": 73.7195, "RA_OF_ASC_NODE": 67.223, "ARG_OF_PERICENTER": 310.3956, "MEAN_ANOMALY": 48.1309, "EPHEMERIS_TYPE": 0, "CLASSIFICATION_TYPE": "U", "NORAD_CAT_ID": 35045, "ELEMENT_SET_NO": 999, "REV_AT_EPOCH": 84528, "BSTAR": 0.0011472, "MEAN_MOTION_DOT": 1.937e-05, "MEAN_MOTION_DDOT": 0}, "tle": {"line1": "1 35045U 93036AHJ 25338.51816051  .00001937  00000+0  11472-2 0  9992", "line2": "2 35045  73.7195  67.2230 0183193 310.3956  48.1309 14.00359627845282"}}, "geometry": {"type": "Point", "coordinates": [80.46816030458764, 42.49656559056266]}}, {"type": "Feature", "properties": {"norad_id": 35060, "name": "COSMOS 2251 DEB", "group": "cosmos-2251-debris", "lat": 2.8924039219242035, "lon": -102.00813401977187, "alt_km": 743.4885148805906, "timestamp": "2025-12-05T19:30:25.962966+00:00", "meta": {"OBJECT_NAME": "COSMOS 2251 DEB", "OBJECT_ID": "1993-036AHP", "EPOCH": "2025-11-28T02:37:07.839264", "MEAN_MOTION": 14.41547968, "ECCENTRICITY": 0.00179641, "INCLINATION": 74.0363, "RA_OF_ASC_NODE": 271.4275, "ARG_OF_PERICENTER": 359.5881, "MEAN_ANOMALY": 0.5257, "EPHEMERIS_TYPE": 0, "CLASSIFICATION_TYPE": "U", "NORAD_CAT_ID": 35060, "ELEMENT_SET_NO": 999, "REV_AT_EPOCH": 87031, "BSTAR": 0.0004076845, "MEAN_MOTION_DOT": 1.301e-05, "MEAN_MOTION_DDOT": 0}, "tle": {"line1": "1 35060U 93036AHP 25332.10911851  .00001301  00000+0  40768-3 0  9998", "line2": "2 35060  74.0363 271.4275 0017964 359.5881   0.5257 14.41547968870310"}}, "geometry": {"type": "Point", "coordinates": [-102.00813401977187, 2.8924039219242035]}}, {"type": "Feature", "properties": {"norad_id": 35061, "name": "COSMOS 2251 DEB", "group": "cosmos-2251-debris", "lat": -43.48513479908675, "lon": -56.642882221058464, "alt_km": 687.3689227721852, "timestamp": "2025-12-05T19:30:25.962977+00:00", "meta": {"OBJECT_NAME": "COSMOS 2251 DEB", "OBJECT_ID": "1993-036AHQ", "EPOCH": "2025-12-03T05:33:06.011712", "MEAN_MOTION": 14.67690423, "ECCENTRICITY": 0.0038808, "INCLINATION": 74.0447, "RA_OF_ASC_NODE": 324.0838, "ARG_OF_PERICENTER": 77.8847, "MEAN_ANOMALY": 282.6667, "EPHEMERIS_TYPE": 0, "CLASSIFICATION_TYPE": "U", "NORAD_CAT_ID": 35061, "ELEMENT_SET_NO": 999, "REV_AT_EPOCH": 88435, "BSTAR": 0.0010187, "MEAN_MOTION_DOT": 5.838e-05, "MEAN_MOTION_DDOT": 0}, "tle": {"line1": "1 35061U 93036AHQ 25337.23131958  .00005838  00000+0  10187-2 0  9990", "line2": "2 35061  74.0447 324.0838 0038808  77.8847 282.6667 14.67690423884356"}}, "geometry": {"type": "Point", "coordinates": [-56.642882221058464, -43.48513479908675]}}, {"type": "Feature", "properties": {"norad_id": 35062, "name": "COSMOS 2251 DEB", "group": "cosmos-2251-debris", "lat": 45.6696302153834, "lon": 122.65644594372267, "alt_km": 763.3341816705297, "timestamp": "2025-12-05T19:30:25.962987+00:00", "meta": {"OBJECT_NAME": "COSMOS 2251 DEB", "OBJECT_ID": "1993-036AHR", "EPOCH": "2025-12-01T08:58:12.976320", "MEAN_MOTION": 14.22770227, "ECCENTRICITY": 0.01291712, "INCLINATION": 74.0782, "RA_OF_ASC_NODE": 113.6209, "ARG_OF_PERICENTER": 116.5829, "MEAN_ANOMALY": 244.8622, "EPHEMERIS_TYPE": 0, "CLASSIFICATION_TYPE": "U", "NORAD_CAT_ID": 35062, "ELEMENT_SET_NO": 999, "REV_AT_EPOCH": 85337, "BSTAR": 0.0022023834, "MEAN_MOTION_DOT": 5.359e-05, "MEAN_MOTION_DDOT": 0}, "tle": {"line1": "1 35062U 93036AHR 25335.37376130  .00005359  00000+0  22024-2 0  9998", "line2": "2 35062  74.0782 113.6209 0129171 116.5829 244.8622 14.22770227853379"}}, "geometry": {"type": "Point", "coordinates": [122.65644594372267, 45.6696302153834]}}, {"type": "Feature", "properties": {"norad_id": 35065, "name": "COSMOS 2251 DEB", "group": "cosmos-2251-debris", "lat": -62.9749622539889, "lon": 61.44742143271898, "alt_km": 745.4001464590219, "timestamp": "2025-12-05T19:30:25.962997+00:00", "meta": {"OBJECT_NAME": "COSMOS 2251 DEB", "OBJECT_ID": "1993-036AHU", "EPOCH": "2025-12-04T09:08:50.273088", "MEAN_MOTION": 14.45690595, "ECCENTRICITY": 0.001954, "INCLINATION": 74.0197, "RA_OF_ASC_NODE": 209.9385, "ARG_OF_PERICENTER": 336.1768, "MEAN_ANOMALY": 23.8484, "EPHEMERIS_TYPE": 0, "CLASSIFICATION_TYPE": "U", "NORAD_CAT_ID": 35065, "ELEMENT_SET_NO": 999, "REV_AT_EPOCH": 68230, "BSTAR": 0.00075616, "MEAN_MOTION_DOT": 2.657e-05, "MEAN_MOTION_DDOT": 0}, "tle": {"line1": "1 35065U 93036AHU 25338.38113742  .00002657  00000+0  75616-3 0  9997", "line2": "2 35065  74.0197 209.9385 0019540 336.1768  23.8484 14.45690595682304"}}, "geometry": {"type": "Point", "coordinates": [61.44742143271898, -62.9749622539889]}}, {"type": "Feature", "properties": {"norad_id": 35071, "name": "COSMOS 2251 DEB", "group": "cosmos-2251-debris", "lat": 63.05646201460207, "lon": -26.868913361290822, "alt_km": 507.4852755800639, "timestamp": "2025-12-05T19:30:25.963011+00:00", "meta": {"OBJECT_NAME": "COSMOS 2251 DEB", "OBJECT_ID": "1993-036AJA", "EPOCH": "2025-12-04T07:52:37.959168", "MEAN_MOTION": 15.03201833, "ECCENTRICITY": 0.0068384, "INCLINATION": 73.9311, "RA_OF_ASC_NODE": 190.7296, "ARG_OF_PERICENTER": 89.7721, "MEAN_ANOMALY": 271.1302, "EPHEMERIS_TYPE": 0, "CLASSIFICATION_TYPE": "U", "NORAD_CAT_ID": 35071, "ELEMENT_SET_NO": 999, "REV_AT_EPOCH": 67410, "BSTAR": 0.0015966, "MEAN_MOTION_DOT": 0.00022767, "MEAN_MOTION_DDOT": 0}, "tle": {"line1": "1 35071U 93036AJA 25338.32821712  .00022767  00000+0  15966-2 0  9996", "line2": "2 35071  73.9311 190.7296 0068384  89.7721 271.1302 15.03201833674109"}}, "geometry": {"type": "Point", "coordinates": [-26.868913361290822, 63.05646201460207]}}, {"type": "Feature", "properties": {"norad_id": 35073, "name": "COSMOS 2251 DEB", "group": "cosmos-2251-debris", "lat": -60.20244844300816, "lon": -45.37424865900836, "alt_km": 580.1715671965503, "timestamp": "2025-12-05T19:30:25.963021+00:00", "meta": {"OBJECT_NAME": "COSMOS 2251 DEB", "OBJECT_ID": "1993-036AJC", "EPOCH": "2025-12-05T06:59:18.657024", "MEAN_MOTION": 14.9988701, "ECCENTRICITY": 0.00104415, "INCLINATION": 74.0017, "RA_OF_ASC_NODE": 345.7551, "ARG_OF_PERICENTER": 87.0822, "MEAN_ANOMALY": 273.156, "EPHEMERIS_TYPE": 0, "CLASSIFICATION_TYPE": "U", "NORAD_CAT_ID": 35073, "ELEMENT_SET_NO": 999, "REV_AT_EPOCH": 67367, "BSTAR": 0.0042260861, "MEAN_MOTION_DOT": 0.00052834, "MEAN_MOTION_DDOT": 0}, "tle": {"line1": "1 35073U 93036AJC 25339.29118816  .00052834  00000+0  42261-2 0  9995", "line2": "2 35073  74.0017 345.7551 0010441  87.0822 273.1560 14.99887010673676"}}, "geometry": {"type": "Point", "coordinates": [-45.37424865900836, -60.20244844300816]}}]}